{"type": "FeatureCollection", "features": [ {"type": "Feature", "properties": {"norad_id": 32260, "name": "GPS BIIRM-4 (PRN 15)", "group": "gnss", "lat": -48.51476335513466, "lon": -37.17518203532998, "alt_km": 20602.03406790216, "timestamp": "2025-12-18T13:51:49.922882+00:00", "meta": {"OBJECT_NAME": "GPS BIIRM-4 (PRN 15)", "OBJECT_ID": "2007-047A", "EPOCH": "2025-12-16T05:50:40.680960", "MEAN_MOTION": 2.00564415, "ECCENTRICITY": 0.01640743, "INCLINATION": 53.9576, "RA_OF_ASC_NODE": 87.6137, "ARG_OF_PERICENTER": 85.2864, "MEAN_ANOMALY": 276.5744, "EPHEMERIS_TYPE": 0, "CLASSIFICATION_TYPE": "U", "NORAD_CAT_ID": 32260, "ELEMENT_SET_NO": 999, "REV_AT_EPOCH": 13314, "BSTAR": 0, "MEAN_MOTION_DOT": -5.5e-07, "MEAN_MOTION_DDOT": 0}, "tle": {"line1": "1 32260U 07047A   25350.24352640 -.00000055  00000+0  00000+0 0  9991", "line2": "2 32260  53.9576  87.6137 0164074  85.2864 276.5744  2.00564415133141"}}, "geometry": {"type": "Point", "coordinates": [-37.17518203532998, -48.51476335513466]}}, {"type": "Feature", "properties": {"norad_id": 32275, "name": "COSMOS 2433 (720)", "group": "gnss", "lat": -59.144233585971314, "lon": -168.82522066185845, "alt_km": 19122.28379337226, "timestamp": "2025-12-18T13:51:49.922895+00:00", "meta": {"OBJECT_NAME": "COSMOS 2433 (720)", "OBJECT_ID": "2007-052A", "EPOCH": "2025-12-14T23:11:38.718240", "MEAN_MOTION": 2.13103955, "ECCENTRICITY": 0.00054201, "INCLINATION": 65.6819, "RA_OF_ASC_NODE": 322.1305, "ARG_OF_PERICENTER": 253.5649, "MEAN_ANOMALY": 106.3736, "EPHEMERIS_TYPE": 0, "CLASSIFICATION_TYPE": "U", "NORAD_CAT_ID": 32275, "ELEMENT_SET_NO": 999, "REV_AT_EPOCH": 14113, "BSTAR": 0, "MEAN_MOTION_DOT": -6.5e-07, "MEAN_MOTION_DDOT": 0}, "tle": {"line1": "1 32275U 07052A   25348.96642035 -.00000065  00000+0  00000+0 0  9990", "line2": "2 32275  65.6819 322.1305 0005420 253.5649 106.3736  2.13103955141132"}}, "geometry": {"type": "Point", "coordinates": [-168.82522066185845, -59.144233585971314]}}, {"type": "Feature", "properties": {"norad_id": 32276, "name": "COSMOS 2432 (719)", "group": "gnss", "lat": -13.431483509917506, "lon": 148.3127171813545, "alt_km": 19145.386935459315, "timestamp": "2025-12-18T13:51:49.922907+00:00", "meta": {"OBJECT_NAME": "COSMOS 2432 (719)", "OBJECT_ID": "2007-052B", "EPOCH": "2025-12-15T06:31:38.583840", "MEAN_MOTION": 2.13103103, "ECCENTRICITY": 0.00112605, "INCLINATION": 65.6973, "RA_OF_ASC_NODE": 322.2446, "ARG_OF_PERICENTER": 312.4858, "MEAN_ANOMALY": 226.3212, "EPHEMERIS_TYPE": 0, "CLASSIFICATION_TYPE": "U", "NORAD_CAT_ID": 32276, "ELEMENT_SET_NO": 999, "REV_AT_EPOCH": 14116, "BSTAR": 0, "MEAN_MOTION_DOT": -6.6e-07, "MEAN_MOTION_DDOT": 0}, "tle": {"line1": "1 32276U 07052B   25349.27197435 -.00000066  00000+0  00000+0 0  9996", "line2": "2 32276  65.6973 322.2446 0011260 312.4858 226.3212  2.13103103141167"}}, "geometry": {"type": "Point", "coordinates": [148.3127171813545, -13.431483509917506]}}, {"type": "Feature", "properties": {"norad_id": 32384, "name": "GPS BIIRM-5 (PRN 29)", "group": "gnss", "lat": 13.472279329461603, "lon": -69.02036292374403, "alt_km": 20250.287611574546, "timestamp": "2025-12-18T13:51:49.922919+00:00", "meta": {"OBJECT_NAME": "GPS BIIRM-5 (PRN 29)", "OBJECT_ID": "2007-062A", "EPOCH": "2025-12-18T04:16:41.212992", "MEAN_MOTION": 2.00577654, "ECCENTRICITY": 0.00322562, "INCLINATION": 55.1774, "RA_OF_ASC_NODE": 281.4278, "ARG_OF_PERICENTER": 162.2486, "MEAN_ANOMALY": 286.0474, "EPHEMERIS_TYPE": 0, "CLASSIFICATION_TYPE": "U", "NORAD_CAT_ID": 32384, "ELEMENT_SET_NO": 999, "REV_AT_EPOCH": 13188, "BSTAR": 0, "MEAN_MOTION_DOT": -4.7e-07, "MEAN_MOTION_DDOT": 0}, "tle": {"line1": "1 32384U 07062A   25352.17825478 -.00000047  00000+0  00000+0 0  9994", "line2": "2 32384  55.1774 281.4278 0032256 162.2486 286.0474  2.00577654131888"}}, "geometry": {"type": "Point", "coordinates": [-69.02036292374403, 13.472279329461603]}}, {"type": "Feature", "properties": {"norad_id": 32393, "name": "COSMOS 2434 (721)", "group": "gnss", "lat": 34.54141493271281, "lon": -1.342807546882614, "alt_km": 19122.051273322988, "timestamp": "2025-12-18T13:51:49.922931+00:00", "meta": {"OBJECT_NAME": "COSMOS 2434 (721)", "OBJECT_ID": "2007-065A", "EPOCH": "2025-12-18T04:23:29.536800", "MEAN_MOTION": 2.13101428, "ECCENTRICITY": 0.00044399, "INCLINATION": 64.3148, "RA_OF_ASC_NODE": 198.0196, "ARG_OF_PERICENTER": 71.1558, "MEAN_ANOMALY": 127.0412, "EPHEMERIS_TYPE": 0, "CLASSIFICATION_TYPE": "U", "NORAD_CAT_ID": 32393, "ELEMENT_SET_NO": 999, "REV_AT_EPOCH": 13991, "BSTAR": 0, "MEAN_MOTION_DOT": 1.1e-06, "MEAN_MOTION_DDOT": 0}, "tle": {"line1": "1 32393U 07065A   25352.18298075  .00000110  00000+0  00000+0 0  9995", "line2": "2 32393  64.3148 198.0196 0004439  71.1558 127.0412  2.13101428139911"}}, "geometry": {"type": "Point", "coordinates": [-1.342807546882614, 34.54141493271281]}}, {"type": "Feature", "properties": {"norad_id": 32395, "name": "COSMOS 2436 (723)", "group": "gnss", "lat": -64.04437719300259, "lon": 116.72858216479246, "alt_km": 19140.906577154285, "timestamp": "2025-12-18T13:51:49.922943+00:00", "meta": {"OBJECT_NAME": "COSMOS 2436 (723)", "OBJECT_ID": "2007-065C", "EPOCH": "2025-12-16T08:11:52.503360", "MEAN_MOTION": 2.13100112, "ECCENTRICITY": 0.00177699, "INCLINATION": 64.3235, "RA_OF_ASC_NODE": 198.1521, "ARG_OF_PERICENTER": 9.2217, "MEAN_ANOMALY": 349.3751, "EPHEMERIS_TYPE": 0, "CLASSIFICATION_TYPE": "U", "NORAD_CAT_ID": 32395, "ELEMENT_SET_NO": 999, "REV_AT_EPOCH": 13982, "BSTAR": 0, "MEAN_MOTION_DOT": 1.1e-06, "MEAN_MOTION_DDOT": 0}, "tle": {"line1": "1 32395U 07065C   25350.34157990  .00000110  00000+0  00000+0 0  9993", "line2": "2 32395  64.3235 198.1521 0017769   9.2217 349.3751  2.13100112139821"}}, "geometry": {"type": "Point", "coordinates": [116.72858216479246, -64.04437719300259]}}, {"type": "Feature", "properties": {"norad_id": 32711, "name": "GPS BIIRM-6 (PRN 07)", "group": "gnss", "lat": -43.14168097241221, "lon": 115.08140560599581, "alt_km": 19892.315429292397, "timestamp": "2025-12-18T13:51:49.922955+00:00", "meta": {"OBJECT_NAME": "GPS BIIRM-6 (PRN 07)", "OBJECT_ID": "2008-012A", "EPOCH": "2025-12-17T15:49:41.763360", "MEAN_MOTION": 2.00565887, "ECCENTRICITY": 0.02026439, "INCLINATION": 54.4776, "RA_OF_ASC_NODE": 157.1765, "ARG_OF_PERICENTER": 245.0018, "MEAN_ANOMALY": 112.8836, "EPHEMERIS_TYPE": 0, "CLASSIFICATION_TYPE": "U", "NORAD_CAT_ID": 32711, "ELEMENT_SET_NO": 999, "REV_AT_EPOCH": 13011, "BSTAR": 0, "MEAN_MOTION_DOT": 7.7e-07, "MEAN_MOTION_DDOT": 0}, "tle": {"line1": "1 32711U 08012A   25351.65951115  .00000077  00000+0  00000+0 0  9996", "line2": "2 32711  54.4776 157.1765 0202643 245.0018 112.8836  2.00565887130114"}}, "geometry": {"type": "Point", "coordinates": [115.08140560599581, -43.14168097241221]}}, {"type": "Feature", "properties": {"norad_id": 35752, "name": "GPS BIIRM-8 (PRN 05)", "group": "gnss", "lat": -32.0753857669717, "lon": 9.66348881814768, "alt_km": 20257.367329374243, "timestamp": "2025-12-18T13:51:49.922967+00:00", "meta": {"OBJECT_NAME": "GPS BIIRM-8 (PRN 05)", "OBJECT_ID": "2009-043A", "EPOCH": "2025-12-18T04:21:14.473728", "MEAN_MOTION": 2.00565462, "ECCENTRICITY": 0.00516833, "INCLINATION": 56.0947, "RA_OF_ASC_NODE": 34.5684, "ARG_OF_PERICENTER": 81.8123, "MEAN_ANOMALY": 312.8651, "EPHEMERIS_TYPE": 0, "CLASSIFICATION_TYPE": "U", "NORAD_CAT_ID": 35752, "ELEMENT_SET_NO": 999, "REV_AT_EPOCH": 11973, "BSTAR": 0, "MEAN_MOTION_DOT": -7.2e-07, "MEAN_MOTION_DDOT": 0}, "tle": {"line1": "1 35752U 09043A   25352.18141752 -.00000072  00000+0  00000+0 0  9992", "line2": "2 35752  56.0947  34.5684 0051683  81.8123 312.8651  2.00565462119738"}}, "geometry": {"type": "Point", "coordinates": [9.66348881814768, -32.0753857669717]}}, {"type": "Feature", "properties": {"norad_id": 36111, "name": "COSMOS 2456 (730)", "group": "gnss", "lat": -53.04746644179946, "lon": 38.69284845728196, "alt_km": 19127.617305053904, "timestamp": "2025-12-18T13:51:49.922980+00:00", "meta": {"OBJECT_NAME": "COSMOS 2456 (730)", "OBJECT_ID": "2009-070A", "EPOCH": "2025-12-18T06:55:18.738048", "MEAN_MOTION": 2.13103695, "ECCENTRICITY": 0.00031882, "INCLINATION": 64.9035, "RA_OF_ASC_NODE": 77.1481, "ARG_OF_PERICENTER": 297.6027, "MEAN_ANOMALY": 138.5871, "EPHEMERIS_TYPE": 0, "CLASSIFICATION_TYPE": "U", "NORAD_CAT_ID": 36111, "ELEMENT_SET_NO": 999, "REV_AT_EPOCH": 12457, "BSTAR": 0, "MEAN_MOTION_DOT": -4.1e-07, "MEAN_MOTION_DDOT": 0}, "tle": {"line1": "1 36111U 09070A   25352.28841132 -.00000041  00000+0  00000+0 0  9998", "line2": "2 36111  64.9035  77.1481 0003188 297.6027 138.5871  2.13103695124574"}}, "geometry": {"type": "Point", "coordinates": [38.69284845728196, -53.04746644179946]}}, {"type": "Feature", "properties": {"norad_id": 36112, "name": "COSMOS 2457 (733)", "group": "gnss", "lat": 56.55306526438081, "lon": 122.12668565867192, "alt_km": 19124.270203355813, "timestamp": "2025-12-18T13:51:49.922991+00:00", "meta": {"OBJECT_NAME": "COSMOS 2457 (733)", "OBJECT_ID": "2009-070B", "EPOCH": "2025-12-17T13:03:42.379200", "MEAN_MOTION": 2.13100979, "ECCENTRICITY": 0.00046214, "INCLINATION": 64.8886, "RA_OF_ASC_NODE": 77.0209, "ARG_OF_PERICENTER": 159.9242, "MEAN_ANOMALY": 194.4541, "EPHEMERIS_TYPE": 0, "CLASSIFICATION_TYPE": "U", "NORAD_CAT_ID": 36112, "ELEMENT_SET_NO": 999, "REV_AT_EPOCH": 12455, "BSTAR": 0, "MEAN_MOTION_DOT": -4.8e-07, "MEAN_MOTION_DDOT": 0}, "tle": {"line1": "1 36112U 09070B   25351.54424050 -.00000048  00000+0  00000+0 0  9990", "line2": "2 36112  64.8886  77.0209 0004621 159.9242 194.4541  2.13100979124552"}}, "geometry": {"type": "Point", "coordinates": [122.12668565867192, 56.55306526438081]}}]}